STARLINK-31539          
1 59539U 24074F   26068.16809474 -.00000464  00000+0 -73437-5 0  9993
2 59539  43.0066 346.5499 0001127 353.7108   6.3729 15.27566314105935
FLOCK 4G-24             
1 62637U 25009AE  26068.72509072  .00010513  00000+0  38996-3 0  9991
2 62637  97.4061 151.5140 0001802 280.2808  79.8228 15.27784978 63732
