[{"OBJECT_NAME":"STARLINK-31539","OBJECT_ID":"2024-074F","EPOCH":"2026-03-09T04:02:03.385536","MEAN_MOTION":15.27566314,"ECCENTRICITY":0.00011271,"INCLINATION":43.0066,"RA_OF_ASC_NODE":346.5499,"ARG_OF_PERICENTER":353.7108,"MEAN_ANOMALY":6.3729,"EPHEMERIS_TYPE":0,"CLASSIFICATION_TYPE":"U","NORAD_CAT_ID":59539,"ELEMENT_SET_NO":999,"REV_AT_EPOCH":10593,"BSTAR":-7.343736e-6,"MEAN_MOTION_DOT":-4.64e-6,"MEAN_MOTION_DDOT":0},{"OBJECT_NAME":"FLOCK 4G-24","OBJECT_ID":"2025-009AE","EPOCH":"2026-03-09T17:24:07.838208","MEAN_MOTION":15.27784978,"ECCENTRICITY":0.0001802,"INCLINATION":97.4061,"RA_OF_ASC_NODE":151.514,"ARG_OF_PERICENTER":280.2808,"MEAN_ANOMALY":79.8228,"EPHEMERIS_TYPE":0,"CLASSIFICATION_TYPE":"U","NORAD_CAT_ID":62637,"ELEMENT_SET_NO":999,"REV_AT_EPOCH":6373,"BSTAR":0.00038996067,"MEAN_MOTION_DOT":0.00010513,"MEAN_MOTION_DDOT":0}]
